ELECTRON KICK STAGE R/B 
1 67074U 25297C   25356.20067417  .00338169  32566-4  17974-2 0  9993
2 67074  97.4817 144.1070 0196539 235.1291 123.1350 15.57739229  1258
STARLINK-36230          
1 67075U 25298A   25356.25002315 -.00029463  00000+0 -10438-3 0  9994
2 67075  69.9973 223.0475 0004480 270.0890 181.6280 15.88614740  2502
STARLINK-36240          
1 67076U 25298B   25356.25002315 -.00020018  00000+0 -70352-4 0  9994
2 67076  69.9975 223.0453 0004544 265.6375 187.8549 15.88660468  2504
STARLINK-36243          
1 67077U 25298C   25356.25002315  .00460086  82683-4  16058-2 0  9999
2 67077  69.9973 223.0423 0004449 270.7592 185.0441 15.89124250  2508
STARLINK-36236          
1 67078U 25298D   25356.25002315 -.00021210  00000+0 -74230-4 0  9990
2 67078  69.9974 223.0407 0004647 269.3472 187.9161 15.88762286  2509
STARLINK-36159          
1 67079U 25298E   25356.25002315 -.00033097  00000+0 -11620-3 0  9990
2 67079  69.9975 223.0383 0004563 269.3968 190.0280 15.88824402  2507
STARLINK-36158          
1 67080U 25298F   25356.25002315 -.00113451  00000+0 -40416-3 0  9990
2 67080  69.9974 223.0360 0004015 274.2165 187.3598 15.88839367  2449
STARLINK-35864          
1 67081U 25298G   25356.25002315 -.00144319  00000+0 -51430-3 0  9996
2 67081  69.9976 223.0339 0003944 275.4558 187.9503 15.88911844  2507
STARLINK-36035          
1 67082U 25298H   25356.25002315 -.00024882  40885-5 -82814-4 0  9991
2 67082  69.9976 223.0317 0004644 264.1362 201.0922 15.88980952  2509
STARLINK-36170          
1 67083U 25298J   25356.25002315 -.00026855  41219-5 -89486-4 0  9998
2 67083  69.9974 223.0291 0004680 263.9918 203.2605 15.89033246  2501
STARLINK-36166          
1 67084U 25298K   25356.25002315 -.00035448  42953-5 -11918-3 0  9997
2 67084  69.9974 223.0267 0004659 265.7663 203.3781 15.89086362  2444
STARLINK-35794          
1 67085U 25298L   25356.25002315 -.00032863  42388-5 -10992-3 0  9999
2 67085  69.9973 223.0244 0004747 265.2285 205.7769 15.89132019  2502
