CCSDS_OMM_VERS = 2.0
CREATION_DATE  = 
ORIGINATOR     = 

OBJECT_NAME    = ELECTRON KICK STAGE R/B
OBJECT_ID      = 2025-297C
CENTER_NAME    = EARTH
REF_FRAME      = TEME
TIME_SYSTEM    = UTC
MEAN_ELEMENT_THEORY = SGP/SGP4

EPOCH          = 2025-12-22T04:48:58.248288
MEAN_MOTION    = 15.57739229
ECCENTRICITY   = .01965399
INCLINATION    = 97.4817
RA_OF_ASC_NODE = 144.1070
ARG_OF_PERICENTER = 235.1291
MEAN_ANOMALY   = 123.1350

EPHEMERIS_TYPE = 0
CLASSIFICATION_TYPE = U
NORAD_CAT_ID   = 67074
ELEMENT_SET_NO = 999
REV_AT_EPOCH   = 125
BSTAR          = .17973906E-2
MEAN_MOTION_DOT = .338169E-2
MEAN_MOTION_DDOT = .32565689E-4

CCSDS_OMM_VERS = 2.0
CREATION_DATE  = 
ORIGINATOR     = 

OBJECT_NAME    = STARLINK-36230
OBJECT_ID      = 2025-298A
CENTER_NAME    = EARTH
REF_FRAME      = TEME
TIME_SYSTEM    = UTC
MEAN_ELEMENT_THEORY = SGP/SGP4

EPOCH          = 2025-12-22T06:00:02.000160
MEAN_MOTION    = 15.88614740
ECCENTRICITY   = .00044805
INCLINATION    = 69.9973
RA_OF_ASC_NODE = 223.0475
ARG_OF_PERICENTER = 270.0890
MEAN_ANOMALY   = 181.6280

EPHEMERIS_TYPE = 0
CLASSIFICATION_TYPE = U
NORAD_CAT_ID   = 67075
ELEMENT_SET_NO = 999
REV_AT_EPOCH   = 250
BSTAR          = -.10438123E-3
MEAN_MOTION_DOT = -.29463E-3
MEAN_MOTION_DDOT = 0

CCSDS_OMM_VERS = 2.0
CREATION_DATE  = 
ORIGINATOR     = 

OBJECT_NAME    = STARLINK-36240
OBJECT_ID      = 2025-298B
CENTER_NAME    = EARTH
REF_FRAME      = TEME
TIME_SYSTEM    = UTC
MEAN_ELEMENT_THEORY = SGP/SGP4

EPOCH          = 2025-12-22T06:00:02.000160
MEAN_MOTION    = 15.88660468
ECCENTRICITY   = .00045447
INCLINATION    = 69.9975
RA_OF_ASC_NODE = 223.0453
ARG_OF_PERICENTER = 265.6375
MEAN_ANOMALY   = 187.8549

EPHEMERIS_TYPE = 0
CLASSIFICATION_TYPE = U
NORAD_CAT_ID   = 67076
ELEMENT_SET_NO = 999
REV_AT_EPOCH   = 250
BSTAR          = -.70352052E-4
MEAN_MOTION_DOT = -.20018E-3
MEAN_MOTION_DDOT = 0

CCSDS_OMM_VERS = 2.0
CREATION_DATE  = 
ORIGINATOR     = 

OBJECT_NAME    = STARLINK-36243
OBJECT_ID      = 2025-298C
CENTER_NAME    = EARTH
REF_FRAME      = TEME
TIME_SYSTEM    = UTC
MEAN_ELEMENT_THEORY = SGP/SGP4

EPOCH          = 2025-12-22T06:00:02.000160
MEAN_MOTION    = 15.89124250
ECCENTRICITY   = .00044492
INCLINATION    = 69.9973
RA_OF_ASC_NODE = 223.0423
ARG_OF_PERICENTER = 270.7592
MEAN_ANOMALY   = 185.0441

EPHEMERIS_TYPE = 0
CLASSIFICATION_TYPE = U
NORAD_CAT_ID   = 67077
ELEMENT_SET_NO = 999
REV_AT_EPOCH   = 250
BSTAR          = .16057976E-2
MEAN_MOTION_DOT = .460086E-2
MEAN_MOTION_DDOT = .82682966E-4

CCSDS_OMM_VERS = 2.0
CREATION_DATE  = 
ORIGINATOR     = 

OBJECT_NAME    = STARLINK-36236
OBJECT_ID      = 2025-298D
CENTER_NAME    = EARTH
REF_FRAME      = TEME
TIME_SYSTEM    = UTC
MEAN_ELEMENT_THEORY = SGP/SGP4

EPOCH          = 2025-12-22T06:00:02.000160
MEAN_MOTION    = 15.88762286
ECCENTRICITY   = .00046471
INCLINATION    = 69.9974
RA_OF_ASC_NODE = 223.0407
ARG_OF_PERICENTER = 269.3472
MEAN_ANOMALY   = 187.9161

EPHEMERIS_TYPE = 0
CLASSIFICATION_TYPE = U
NORAD_CAT_ID   = 67078
ELEMENT_SET_NO = 999
REV_AT_EPOCH   = 250
BSTAR          = -.74229779E-4
MEAN_MOTION_DOT = -.2121E-3
MEAN_MOTION_DDOT = 0

CCSDS_OMM_VERS = 2.0
CREATION_DATE  = 
ORIGINATOR     = 

OBJECT_NAME    = STARLINK-36159
OBJECT_ID      = 2025-298E
CENTER_NAME    = EARTH
REF_FRAME      = TEME
TIME_SYSTEM    = UTC
MEAN_ELEMENT_THEORY = SGP/SGP4

EPOCH          = 2025-12-22T06:00:02.000160
MEAN_MOTION    = 15.88824402
ECCENTRICITY   = .00045634
INCLINATION    = 69.9975
RA_OF_ASC_NODE = 223.0383
ARG_OF_PERICENTER = 269.3968
MEAN_ANOMALY   = 190.0280

EPHEMERIS_TYPE = 0
CLASSIFICATION_TYPE = U
NORAD_CAT_ID   = 67079
ELEMENT_SET_NO = 999
REV_AT_EPOCH   = 250
BSTAR          = -.11620374E-3
MEAN_MOTION_DOT = -.33097E-3
MEAN_MOTION_DDOT = 0

CCSDS_OMM_VERS = 2.0
CREATION_DATE  = 
ORIGINATOR     = 

OBJECT_NAME    = STARLINK-36158
OBJECT_ID      = 2025-298F
CENTER_NAME    = EARTH
REF_FRAME      = TEME
TIME_SYSTEM    = UTC
MEAN_ELEMENT_THEORY = SGP/SGP4

EPOCH          = 2025-12-22T06:00:02.000160
MEAN_MOTION    = 15.88839367
ECCENTRICITY   = .00040159
INCLINATION    = 69.9974
RA_OF_ASC_NODE = 223.0360
ARG_OF_PERICENTER = 274.2165
MEAN_ANOMALY   = 187.3598

EPHEMERIS_TYPE = 0
CLASSIFICATION_TYPE = U
NORAD_CAT_ID   = 67080
ELEMENT_SET_NO = 999
REV_AT_EPOCH   = 244
BSTAR          = -.40416139E-3
MEAN_MOTION_DOT = -.113451E-2
MEAN_MOTION_DDOT = 0

CCSDS_OMM_VERS = 2.0
CREATION_DATE  = 
ORIGINATOR     = 

OBJECT_NAME    = STARLINK-35864
OBJECT_ID      = 2025-298G
CENTER_NAME    = EARTH
REF_FRAME      = TEME
TIME_SYSTEM    = UTC
MEAN_ELEMENT_THEORY = SGP/SGP4

EPOCH          = 2025-12-22T06:00:02.000160
MEAN_MOTION    = 15.88911844
ECCENTRICITY   = .0003944
INCLINATION    = 69.9976
RA_OF_ASC_NODE = 223.0339
ARG_OF_PERICENTER = 275.4558
MEAN_ANOMALY   = 187.9503

EPHEMERIS_TYPE = 0
CLASSIFICATION_TYPE = U
NORAD_CAT_ID   = 67081
ELEMENT_SET_NO = 999
REV_AT_EPOCH   = 250
BSTAR          = -.51429877E-3
MEAN_MOTION_DOT = -.144319E-2
MEAN_MOTION_DDOT = 0

CCSDS_OMM_VERS = 2.0
CREATION_DATE  = 
ORIGINATOR     = 

OBJECT_NAME    = STARLINK-36035
OBJECT_ID      = 2025-298H
CENTER_NAME    = EARTH
REF_FRAME      = TEME
TIME_SYSTEM    = UTC
MEAN_ELEMENT_THEORY = SGP/SGP4

EPOCH          = 2025-12-22T06:00:02.000160
MEAN_MOTION    = 15.88980952
ECCENTRICITY   = .00046447
INCLINATION    = 69.9976
RA_OF_ASC_NODE = 223.0317
ARG_OF_PERICENTER = 264.1362
MEAN_ANOMALY   = 201.0922

EPHEMERIS_TYPE = 0
CLASSIFICATION_TYPE = U
NORAD_CAT_ID   = 67082
ELEMENT_SET_NO = 999
REV_AT_EPOCH   = 250
BSTAR          = -.82814049E-4
MEAN_MOTION_DOT = -.24882E-3
MEAN_MOTION_DDOT = .4088524E-5

CCSDS_OMM_VERS = 2.0
CREATION_DATE  = 
ORIGINATOR     = 

OBJECT_NAME    = STARLINK-36170
OBJECT_ID      = 2025-298J
CENTER_NAME    = EARTH
REF_FRAME      = TEME
TIME_SYSTEM    = UTC
MEAN_ELEMENT_THEORY = SGP/SGP4

EPOCH          = 2025-12-22T06:00:02.000160
MEAN_MOTION    = 15.89033246
ECCENTRICITY   = .00046801
INCLINATION    = 69.9974
RA_OF_ASC_NODE = 223.0291
ARG_OF_PERICENTER = 263.9918
MEAN_ANOMALY   = 203.2605

EPHEMERIS_TYPE = 0
CLASSIFICATION_TYPE = U
NORAD_CAT_ID   = 67083
ELEMENT_SET_NO = 999
REV_AT_EPOCH   = 250
BSTAR          = -.89486001E-4
MEAN_MOTION_DOT = -.26855E-3
MEAN_MOTION_DDOT = .4121913E-5

CCSDS_OMM_VERS = 2.0
CREATION_DATE  = 
ORIGINATOR     = 

OBJECT_NAME    = STARLINK-36166
OBJECT_ID      = 2025-298K
CENTER_NAME    = EARTH
REF_FRAME      = TEME
TIME_SYSTEM    = UTC
MEAN_ELEMENT_THEORY = SGP/SGP4

EPOCH          = 2025-12-22T06:00:02.000160
MEAN_MOTION    = 15.89086362
ECCENTRICITY   = .00046593
INCLINATION    = 69.9974
RA_OF_ASC_NODE = 223.0267
ARG_OF_PERICENTER = 265.7663
MEAN_ANOMALY   = 203.3781

EPHEMERIS_TYPE = 0
CLASSIFICATION_TYPE = U
NORAD_CAT_ID   = 67084
ELEMENT_SET_NO = 999
REV_AT_EPOCH   = 244
BSTAR          = -.1191836E-3
MEAN_MOTION_DOT = -.35448E-3
MEAN_MOTION_DDOT = .4295328E-5

CCSDS_OMM_VERS = 2.0
CREATION_DATE  = 
ORIGINATOR     = 

OBJECT_NAME    = STARLINK-35794
OBJECT_ID      = 2025-298L
CENTER_NAME    = EARTH
REF_FRAME      = TEME
TIME_SYSTEM    = UTC
MEAN_ELEMENT_THEORY = SGP/SGP4

EPOCH          = 2025-12-22T06:00:02.000160
MEAN_MOTION    = 15.89132019
ECCENTRICITY   = .00047477
INCLINATION    = 69.9973
RA_OF_ASC_NODE = 223.0244
ARG_OF_PERICENTER = 265.2285
MEAN_ANOMALY   = 205.7769

EPHEMERIS_TYPE = 0
CLASSIFICATION_TYPE = U
NORAD_CAT_ID   = 67085
ELEMENT_SET_NO = 999
REV_AT_EPOCH   = 250
BSTAR          = -.10992297E-3
MEAN_MOTION_DOT = -.32863E-3
MEAN_MOTION_DDOT = .4238814E-5

